[{"OBJECT_NAME":"JINJUSAT-1B","OBJECT_ID":"2025-052A","EPOCH":"2026-03-09T15:55:38.242848","MEAN_MOTION":15.30194857,"ECCENTRICITY":0.00055504,"INCLINATION":97.4113,"RA_OF_ASC_NODE":325.4613,"ARG_OF_PERICENTER":82.193,"MEAN_ANOMALY":277.9941,"EPHEMERIS_TYPE":0,"CLASSIFICATION_TYPE":"U","NORAD_CAT_ID":63210,"ELEMENT_SET_NO":999,"REV_AT_EPOCH":5486,"BSTAR":0.00068430401,"MEAN_MOTION_DOT":0.00019955,"MEAN_MOTION_DDOT":0},{"OBJECT_NAME":"STARLINK-36443","OBJECT_ID":"2026-005AD","EPOCH":"2026-03-09T12:36:39.531456","MEAN_MOTION":15.28415724,"ECCENTRICITY":0.00022913,"INCLINATION":42.9998,"RA_OF_ASC_NODE":238.7026,"ARG_OF_PERICENTER":266.798,"MEAN_ANOMALY":93.261,"EPHEMERIS_TYPE":0,"CLASSIFICATION_TYPE":"U","NORAD_CAT_ID":67431,"ELEMENT_SET_NO":999,"REV_AT_EPOCH":867,"BSTAR":0.001062734,"MEAN_MOTION_DOT":0.00029859,"MEAN_MOTION_DDOT":0}]
